{
  "norad_id": 64476,
  "name": "STARLINK-34496",
  "history": [
    {
      "epoch": "2026-03-28T12:52:18.377184Z",
      "apogee_km": 475.88622312222196,
      "perigee_km": 474.45662298517345,
      "latitude_deg": -8.61469478561212e-06,
      "longitude_deg": 10.244161328029117,
      "height_km": 475.84481118636575,
      "semi_major_axis_km": 6853.308423053697,
      "eccentricity": 0.0001043,
      "inclination_deg": 53.1599,
      "raan_deg": 29.2761,
      "arg_perigee_deg": 71.6473,
      "mean_anomaly_deg": 288.4641,
      "mean_motion_rev_day": 15.30214618
    },
    {
      "epoch": "2026-03-29T01:24:43.959168Z",
      "apogee_km": 476.0040965768476,
      "perigee_km": 474.39082164517185,
      "latitude_deg": -1.098573065282294e-05,
      "longitude_deg": 179.19765026331947,
      "height_km": 476.2154553934983,
      "semi_major_axis_km": 6853.334459111009,
      "eccentricity": 0.0001177,
      "inclination_deg": 53.1602,
      "raan_deg": 26.8512,
      "arg_perigee_deg": 98.5377,
      "mean_anomaly_deg": 261.5757,
      "mean_motion_rev_day": 15.30205898
    }
  ]
}